[
    {
        "Altitude(m)": 605470.7356650914,
        "Argument of Periapsis(deg)": 0.0,
        "Eccentricity": 0.0,
        "Inclination(deg)": 60.0,
        "Latitude(deg)": 27.988029731286833,
        "Longitude(deg)": -102.7370405576178,
        "Mean Anomaly(deg)": 147.27270000000001,
        "RAAN(deg)": 195.00000000000003,
        "Satellite Name": "Test1 867",
        "Satellite Number": 867,
        "Semi-Major Axis(m)": 6980739.136638005,
        "Time(s)": 0
    },
    {
        "Altitude(m)": 605395.7741739413,
        "Argument of Periapsis(deg)": 0.00010418945913296404,
        "Eccentricity": 0.0,
        "Inclination(deg)": 60.0,
        "Latitude(deg)": 27.4737202700395,
        "Longitude(deg)": -102.38385360686416,
        "Mean Anomaly(deg)": 147.8928061454618,
        "RAAN(deg)": 194.99957995086024,
        "Satellite Name": "Test1 867",
        "Satellite Number": 867,
        "Semi-Major Axis(m)": 6980739.136638005,
        "Time(s)": 10
    }
]